H1 CPF  1  DLR 2021 02 08 10  5392 technosat            
H2  1704205 6203    42829 2021 02 08 00 00 00 2021 02 15 00 00 00    60 1 1  0 0 0
H9
10 0 59255  79200.000000  0      -2850650.629       1502735.356       6184224.042
10 0 59255  79260.000000  0      -2437512.634       1443449.277       6371317.272
10 0 59255  79320.000000  0      -2014712.906       1374451.710       6531493.769
10 0 59255  79380.000000  0      -1584108.582       1295955.451       6664076.339
10 0 59255  79440.000000  0      -1147587.217       1208229.340       6768503.339
10 0 59255  79500.000000  0       -707058.596       1111597.406       6844330.928
10 0 59255  79560.000000  0       -264446.469       1006437.701       6891234.895
10 0 59255  79620.000000  0        178319.756        893180.847       6909012.011
10 0 59255  79680.000000  0        619313.331        772308.316       6897580.934
10 0 59255  79740.000000  0       1056618.468        644350.448       6856982.632
10 0 59255  79800.000000  0       1488338.593        509884.177       6787380.354
10 0 59255  79860.000000  0       1912604.509        369530.501       6689059.116
10 0 59255  79920.000000  0       2327582.458        223951.697       6562424.761
10 0 59255  79980.000000  0       2731482.100         73848.273       6408002.562
10 0 59255  80040.000000  0       3122564.346        -80044.323       6226435.252
10 0 59255  80100.000000  0       3499148.940       -236959.197       6018480.583
10 0 59255  80160.000000  0       3859621.831       -396101.729       5785008.440
10 0 59255  80220.000000  0       4202442.279       -556653.501       5526997.457
10 0 59255  80280.000000  0       4526149.666       -717776.396       5245531.210
10 0 59255  80340.000000  0       4829370.035       -878616.869       4941793.936
10 0 59255  80400.000000  0       5110822.251      -1038310.344       4617065.709
10 0 59255  80460.000000  0       5369323.718      -1195985.723       4272717.246
10 0 59255  80520.000000  0       5603795.760      -1350770.060       3910204.285
10 0 59255  80580.000000  0       5813268.526      -1501793.253       3531061.467
10 0 59255  80640.000000  0       5996885.364      -1648192.783       3136895.864
10 0 59255  80700.000000  0       6153906.692      -1789118.501       2729380.134
10 0 59255  80760.000000  0       6283713.312      -1923737.378       2310245.334
10 0 59255  80820.000000  0       6385809.149      -2051238.226       1881273.441
10 0 59255  80880.000000  0       6459823.425      -2170836.339       1444289.604
10 0 59255  80940.000000  0       6505512.228      -2281778.057       1001154.111
10 0 59255  81000.000000  0       6522759.394      -2383345.225        553754.161
10 0 59255  81060.000000  0       6511576.773      -2474859.433        103995.515
10 0 59255  81120.000000  0       6472103.893      -2555686.063       -346205.955
10 0 59255  81180.000000  0       6404606.960      -2625238.160       -794932.796
10 0 59255  81240.000000  0       6309477.178      -2682980.077      -1240274.514
10 0 59255  81300.000000  0       6187228.438      -2728430.833      -1680336.037
10 0 59255  81360.000000  0       6038494.431      -2761167.177      -2113246.056
10 0 59255  81420.000000  0       5864025.202      -2780826.340      -2537165.247
10 0 59255  81480.000000  0       5664683.129      -2787108.475      -2950294.315
10 0 59255  81540.000000  0       5441438.373      -2779778.766      -3350881.776
10 0 59255  81600.000000  0       5195363.871      -2758669.238      -3737231.479
10 0 59255  81660.000000  0       4927629.892      -2723680.203      -4107709.869
10 0 59255  81720.000000  0       4639498.114      -2674781.347      -4460752.941
10 0 59255  81780.000000  0       4332315.290      -2612012.463      -4794872.793
10 0 59255  81840.000000  0       4007506.571      -2535483.792      -5108663.763
10 0 59255  81900.000000  0       3666568.554      -2445376.023      -5400808.114
10 0 59255  81960.000000  0       3311062.122      -2341939.935      -5670081.273
10 0 59255  82020.000000  0       2942605.133      -2225495.728      -5915356.680
10 0 59255  82080.000000  0       2562864.939      -2096432.013      -6135610.256
10 0 59255  82140.000000  0       2173550.678      -1955204.471      -6329924.460
10 0 59255  82200.000000  0       1776405.419      -1802334.115      -6497491.816
10 0 59255  82260.000000  0       1373198.255      -1638405.242      -6637617.909
10 0 59255  82320.000000  0        965716.421      -1464063.138      -6749723.863
10 0 59255  82380.000000  0        555757.450      -1280011.511      -6833348.479
10 0 59255  82440.000000  0        145121.249      -1087009.590      -6888149.860
10 0 59255  82500.000000  0       -264397.657       -885868.968      -6913906.509
10 0 59255  82560.000000  0       -671017.793       -677450.246      -6910518.091
10 0 59255  82620.000000  0      -1072978.403       -462659.364      -6878005.738
10 0 59255  82680.000000  0      -1468546.959       -242443.679      -6816511.792
10 0 59255  82740.000000  0      -1856026.463        -17787.841      -6726299.114
10 0 59255  82800.000000  0      -2233762.574        210290.516      -6607749.964
10 0 59255  82860.000000  0      -2600150.498        440745.280      -6461364.447
10 0 59255  82920.000000  0      -2953641.679        672506.556      -6287758.557
10 0 59255  82980.000000  0      -3292750.253        904485.538      -6087661.783
10 0 59255  83040.000000  0      -3616059.303       1135579.505      -5861914.284
10 0 59255  83100.000000  0      -3922226.824       1364676.929      -5611463.568
10 0 59255  83160.000000  0      -4209991.313       1590662.714      -5337360.773
10 0 59255  83220.000000  0      -4478177.080       1812423.588      -5040756.562
10 0 59255  83280.000000  0      -4725699.212       2028853.552      -4722896.477
10 0 59255  83340.000000  0      -4951568.062       2238859.308      -4385115.882
10 0 59255  83400.000000  0      -5154893.350       2441365.673      -4028834.584
10 0 59255  83460.000000  0      -5334887.844       2635321.009      -3655551.070
10 0 59255  83520.000000  0      -5490870.614       2819702.591      -3266836.387
10 0 59255  83580.000000  0      -5622269.839       2993521.923      -2864327.667
10 0 59255  83640.000000  0      -5728625.094       3155829.975      -2449721.304
10 0 59255  83700.000000  0      -5809589.124       3305722.263      -2024765.850
10 0 59255  83760.000000  0      -5864929.103       3442343.765      -1591254.622
10 0 59255  83820.000000  0      -5894527.321       3564893.628      -1151018.051
10 0 59255  83880.000000  0      -5898381.325       3672629.643       -705915.914
10 0 59255  83940.000000  0      -5876603.582       3764872.501       -257829.365
10 0 59255  84000.000000  0      -5829420.584       3841009.753        191347.179
10 0 59255  84060.000000  0      -5757171.352       3900499.452        639714.305
10 0 59255  84120.000000  0      -5660305.313       3942873.392       1085375.790
10 0 59255  84180.000000  0      -5539379.775       3967740.093       1526446.743
10 0 59255  84240.000000  0      -5395056.794       3974787.365       1961061.803
10 0 59255  84300.000000  0      -5228099.589       3963784.454       2387383.045
10 0 59255  84360.000000  0      -5039368.630       3934583.926       2803607.893
10 0 59255  84420.000000  0      -4829817.137       3887123.047       3207976.898
10 0 59255  84480.000000  0      -4600486.172       3821424.747       3598781.225
10 0 59255  84540.000000  0      -4352499.367       3737598.178       3974369.908
10 0 59255  84600.000000  0      -4087057.304       3635838.799       4333156.769
10 0 59255  84660.000000  0      -3805431.676       3516428.139       4673627.049
10 0 59255  84720.000000  0      -3508959.066       3379733.162       4994343.802
10 0 59255  84780.000000  0      -3199034.449       3226205.158       5293953.825
10 0 59255  84840.000000  0      -2877104.544       3056378.239       5571193.236
10 0 59255  84900.000000  0      -2544660.981       2870867.452       5824892.649
10 0 59255  84960.000000  0      -2203233.333       2670366.528       6053981.941
10 0 59255  85020.000000  0      -1854382.020       2455645.246       6257494.627
10 0 59255  85080.000000  0      -1499691.079       2227546.391       6434571.701
10 0 59255  85140.000000  0      -1140761.025       1986982.445       6584464.968
10 0 59255  85200.000000  0       -779201.748       1734931.969       6706540.080
10 0 59255  85260.000000  0       -416625.365       1472435.611       6800279.147
10 0 59255  85320.000000  0        -54639.073       1200591.844       6865282.843
10 0 59255  85380.000000  0        305161.917        920552.419       6901272.037
10 0 59255  85440.000000  0        661201.336        633517.563       6908088.970
10 0 59255  85500.000000  0       1011928.684        340730.919       6885697.982
10 0 59255  85560.000000  0       1355825.933         43474.249       6834185.793
10 0 59255  85620.000000  0       1691414.074       -256938.105       6753761.322
10 0 59255  85680.000000  0       2017259.469       -559165.007       6644755.006
10 0 59255  85740.000000  0       2331979.978       -861844.444       6507617.611
10 0 59255  85800.000000  0       2634250.892      -1163599.570       6342918.658
10 0 59255  85860.000000  0       2922810.639      -1463044.962       6151344.331
10 0 59255  85920.000000  0       3196466.199      -1758793.010       5933694.876
10 0 59255  85980.000000  0       3454098.188      -2049460.359       5690881.477
10 0 59255  86040.000000  0       3694665.617      -2333674.382       5423922.711
10 0 59255  86100.000000  0       3917210.307      -2610079.713       5133940.548
10 0 59255  86160.000000  0       4120860.944      -2877344.831       4822155.890
10 0 59255  86220.000000  0       4304836.733      -3134168.605       4489883.631
10 0 59255  86280.000000  0       4468450.655      -3379286.771       4138527.271
10 0 59255  86340.000000  0       4611112.278      -3611478.311       3769573.099
99
